[{"OBJECT_NAME":"SWARM B","OBJECT_ID":"2013-067A","EPOCH":"2026-03-09T22:20:48.706656","MEAN_MOTION":15.27862638,"ECCENTRICITY":0.00036996,"INCLINATION":87.749,"RA_OF_ASC_NODE":12.4162,"ARG_OF_PERICENTER":86.3179,"MEAN_ANOMALY":273.8493,"EPHEMERIS_TYPE":0,"CLASSIFICATION_TYPE":"U","NORAD_CAT_ID":39451,"ELEMENT_SET_NO":999,"REV_AT_EPOCH":66808,"BSTAR":0.00020534236,"MEAN_MOTION_DOT":5.616e-5,"MEAN_MOTION_DDOT":0},{"OBJECT_NAME":"STARLINK-31675","OBJECT_ID":"2024-074Q","EPOCH":"2026-03-09T03:36:08.398944","MEAN_MOTION":15.27570707,"ECCENTRICITY":9.13e-6,"INCLINATION":43.002,"RA_OF_ASC_NODE":346.4129,"ARG_OF_PERICENTER":29.6362,"MEAN_ANOMALY":330.4495,"EPHEMERIS_TYPE":0,"CLASSIFICATION_TYPE":"U","NORAD_CAT_ID":59548,"ELEMENT_SET_NO":999,"REV_AT_EPOCH":10593,"BSTAR":-0.00011532771,"MEAN_MOTION_DOT":-3.433e-5,"MEAN_MOTION_DDOT":0}]
